STARLINK-1748_new
1 16570C 20070AQ  21326.15175502 -.00010884  00000-0 -72939-3 0  3261
2 16570  53.0541 358.0479 0001616  56.7286  39.0546 15.06403246    15
STARLINK-1748_old
1 26570C 20070AQ  21325.15609241 -.00000533  00000-0 -35692-4 0  3257
2 26570  53.0545   2.5177 0001521  55.2132  38.0313 15.06407194    11
